{
  "norad_id": 68890,
  "name": "KUIPER-00519",
  "history": [
    {
      "epoch": "2026-05-02T10:00:03.000096Z",
      "apogee_km": 453.3171481398658,
      "perigee_km": 449.95963055846096,
      "latitude_deg": 14.796399461607232,
      "longitude_deg": -98.57438667301068,
      "height_km": 451.4610797823108,
      "semi_major_axis_km": 6829.775389349163,
      "eccentricity": 0.0002458,
      "inclination_deg": 51.8821,
      "raan_deg": 103.667,
      "arg_perigee_deg": 78.5816,
      "mean_anomaly_deg": 82.4673,
      "mean_motion_rev_day": 15.38130309
    }
  ]
}