{"fetched_at":"2026-05-03T06:27:58Z","count":17151,"tles":[{"name":"KUIPER-00519","line1":"1 68890U 26095AC  26122.41670139  .00070485  00000+0  18415-2 0  9991","line2":"2 68890  51.8821 103.6670 0002458  78.5816  82.4673 15.38130309  1414","category":"Other"}]}